satname,norad_id,inclination_deg,eccentricity,mean_motion_rev_per_day,perigee_km,apogee_km,l1,l2
STARLINK-1329,45531,53.0534,0.0001439,15.06396319,546.2262804151578,548.219398977023,1 45531U 20025A   25270.01239437  .00001768  00000+0  13755-3 0  9997,2 45531  53.0534 121.3939 0001439  82.4084 277.7069 15.06396319300421
STARLINK-1338,45532,53.0527,0.0001364,15.06386779,546.3074556251313,548.1967017657989,1 45532U 20025B   25270.02345054  .00000688  00000+0  65077-4 0  9997,2 45532  53.0527 121.3418 0001364 100.2905 259.8238 15.06386779300422
STARLINK-1350,45535,53.0739,0.000241,15.31191238,470.6060632286235,473.90795314056777,1 45535U 20025E   25269.70732678  .00017184  00000+0  57314-3 0  9998,2 45535  53.0739  80.4570 0002410 128.8629 231.2586 15.31191238300990
STARLINK-1362,45538,53.0537,0.0001403,15.06398505,546.2445128562204,548.1877669472769,1 45538U 20025H   25270.58642627  .00003178  00000+0  23219-3 0  9998,2 45538  53.0537 118.5338 0001403  97.1910 262.9239 15.06398505300518
STARLINK-1368,45540,53.0539,0.0001426,15.06398755,546.2278184381057,548.2029289350803,1 45540U 20025K   25270.59108978  .00004876  00000+0  34602-3 0  9992,2 45540  53.0539 118.7975 0001426  73.1607 286.9538 15.06398755300508
STARLINK-1371,45542,53.055,0.0001443,15.06394572,546.2288638289583,548.2275242239548,1 45542U 20025M   25269.76543328  .00000834  00000+0  74873-4 0  9998,2 45542  53.0550 122.5093 0001443 109.8410 250.2735 15.06394572300387
STARLINK-1372,45543,53.0541,0.0001482,15.06392593,546.2079193988484,548.2605994401401,1 45543U 20025N   25269.86863827  .00000219  00000+0  33619-4 0  9999,2 45543  53.0541 122.0383 0001482  93.3339 266.7820 15.06392593299492
STARLINK-1373,45544,53.0544,0.0001425,15.06396437,546.2356143160141,548.2093417672559,1 45544U 20025P   25270.55053661  .00001577  00000+0  12473-3 0  9997,2 45544  53.0544 118.9810 0001425 100.6137 259.5012 15.06396437300509
STARLINK-1294,45551,53.0512,0.0004943,15.53446485,403.3185375013136,410.0259999443724,1 45551U 20025W   25270.58339120  .00151031  00000+0  23040-2 0  9997,2 45551  53.0512  64.1275 0004943 266.0872   4.1635 15.53446485  5755
STARLINK-1323,45553,53.0359,0.0003597,15.92903538,291.7623376110978,296.5623897733376,1 45553U 20025Y   25270.58339120  .00332657  53477-4  94255-3 0  9992,2 45553  53.0359  45.1705 0003597  64.3492  32.7568 15.92903538  6061
STARLINK-1325,45554,53.0613,0.0004183,15.47220527,422.01560333759153,427.70699171330125,1 45554U 20025Z   25270.55415699  .00095953  00000+0  18409-2 0  9996,2 45554  53.0613  56.3034 0004183 353.9778   6.1178 15.47220527301396
STARLINK-1327,45555,53.0537,7.45e-05,15.06457747,546.5186520715552,547.55050263658,1 45555U 20025AA  25270.52286107 -.00014303  00000+0 -94179-3 0  9995,2 45555  53.0537  99.1059 0000745  80.4319 279.6754 15.06457747300776
STARLINK-1336,45557,53.0387,0.0002571,15.88548269,304.6336937824608,308.07085816816743,1 45557U 20025AC  25270.58339120  .00337130  00000+0  11401-2 0  9997,2 45557  53.0387  50.9256 0002571 118.6799 352.7644 15.88548269  6044
STARLINK-1342,45558,53.0433,0.0002083,16.00473596,271.7208111774635,274.4917191217246,1 45558U 20025AD  25270.58339120  .00500504  12070-3  93325-3 0  9995,2 45558  53.0433  47.0082 0002083  15.8428  30.9940 16.00473596  5910
STARLINK-1356,45564,53.0526,0.0001252,15.06394436,546.3615550749237,548.0956666238817,1 45564U 20025AK  25269.73041330  .00000309  00000+0  39662-4 0  9999,2 45564  53.0526 102.6589 0001252  95.0436 265.0696 15.06394436300654
STARLINK-1357,45565,53.0642,0.0008256,15.26041517,481.9913356628258,493.3281392357021,1 45565U 20025AL  25269.88535383  .00086129  00000+0  32740-2 0  9994,2 45565  53.0642  92.5371 0008256 137.7687 222.3948 15.26041517300818
STARLINK-1361,45567,53.0538,0.0001307,15.0639972,546.307272929399,548.1175592667669,1 45567U 20025AN  25269.88153637  .00000466  00000+0  50192-4 0  9997,2 45567  53.0538 101.9815 0001307  95.0310 265.0828 15.06399720300687
STARLINK-1363,45568,53.0544,0.0001315,15.06391854,546.325837749092,548.1472109859997,1 45568U 20025AP  25269.76362192  .00001096  00000+0  92502-4 0  9994,2 45568  53.0544 102.7522 0001315  74.2897 285.8237 15.06391854300658
STARLINK-1366,45569,53.0535,0.0001331,15.06411613,546.2542068387338,548.0977251502809,1 45569U 20025AQ  25270.54869091  .00005130  00000+0  36293-3 0  9990,2 45569  53.0535  98.9854 0001331  89.9236 270.1905 15.06411613300779
STARLINK-1376,45570,53.0546,0.0001236,15.06392761,546.3777686954954,548.0897203435406,1 45570U 20025AR  25269.81150090 -.00000521  00000+0 -16111-4 0  9991,2 45570  53.0546 102.2973 0001236  86.7068 273.4062 15.06392761300666
STARLINK-1320,45572,53.0612,0.0007595,15.3693334,449.994057085908,460.373871630768,1 45572U 20025AT  25270.58339120  .00075460  00000+0  20476-2 0  9991,2 45572  53.0612  50.1446 0007595 215.9584 169.9014 15.36933340  5879
STARLINK-1321,45573,53.0532,0.0001397,15.06395531,546.2577817064885,548.1927279204838,1 45573U 20025AU  25269.79768576 -.00000650  00000+0 -24740-4 0  9995,2 45573  53.0532  92.3543 0001397  91.7623 268.3526 15.06395531300506
STARLINK-1328,45576,53.0548,0.0003542,15.56787337,394.56229268658353,399.36177284139376,1 45576U 20025AX  25270.58339120  .00163772  00000+0  22065-2 0  9995,2 45576  53.0548  78.6457 0003542 245.1249 289.3623 15.56787337  5877
STARLINK-1331,45578,53.0545,0.0001296,15.0639307,546.335269545847,548.130325397351,1 45578U 20025AZ  25269.51018446  .00000561  00000+0  56549-4 0  9995,2 45578  53.0545  93.6500 0001296  87.8214 272.2923 15.06393070300772
STARLINK-1333,45580,53.0532,0.0001353,15.06400407,546.2733110510617,548.1473100332933,1 45580U 20025BB  25269.98106343  .00000801  00000+0  72675-4 0  9998,2 45580  53.0532 101.5357 0001353  97.1699 262.9444 15.06400407300693
STARLINK-1335,45581,53.0534,0.0001381,15.06400911,546.2523756056271,548.1651561061572,1 45581U 20025BC  25270.51643884  .00002480  00000+0  18530-3 0  9990,2 45581  53.0534  89.1323 0001381  83.1884 276.9262 15.06400911300910
STARLINK-1337,45582,53.0542,0.0001361,15.06399932,546.2692263813915,548.1543063155914,1 45582U 20025BD  25269.74238084 -.00008727  00000+0 -56767-3 0  9992,2 45582  53.0542  92.6068 0001361  91.1661 268.9484 15.06399932300798
STARLINK-1347,45586,53.0584,0.0006991,15.2540299,484.7743808555242,494.3768166110731,1 45586U 20025BH  25269.80076759  .00095245  00000+0  36856-2 0  9997,2 45586  53.0584  83.2555 0006991 145.3061 214.8394 15.25402990300920
STARLINK-1360,45588,53.0497,0.0004218,15.67762175,362.46206572388564,368.15083461845006,1 45588U 20025BK  25270.55642327  .00091522  00000+0  81416-3 0  9990,2 45588  53.0497   8.9250 0004218   3.5025 356.6020 15.67762175302042
STARLINK-1364,45589,53.0561,7.16e-05,15.06403062,546.7063190803701,547.6980276499962,1 45589U 20025BL  25270.47588269 -.00000423  00000+0 -95422-5 0  9992,2 45589  53.0561  89.3144 0000716 127.9731 232.1323 15.06403062300901
STARLINK-1365,45590,53.0539,0.0001449,15.06417987,546.152955904271,548.1599059405517,1 45590U 20025BM  25269.76173320  .00007753  00000+0  53854-3 0  9994,2 45590  53.0539 122.5282 0001449  72.4241 287.6907 15.06417987300392
STARLINK-1443,45660,53.057,0.0001384,15.0641767,546.1989417172899,548.1158632078914,1 45660U 20035D   25270.47679976  .00003195  00000+0  23317-3 0  9998,2 45660  53.0570  79.3118 0001384  91.0660 269.0488 15.06417670294133
STARLINK-1446,45663,53.0289,0.0004849,15.30090695,472.2181051932939,478.8648025578632,1 45663U 20035G   25270.39369465  .00035393  00000+0  12051-2 0  9998,2 45663  53.0289  48.7460 0004849 154.7487 205.3750 15.30090695294558
STARLINK-1448,45665,53.054,0.0001324,15.06403728,546.283217542471,548.1170468150731,1 45665U 20035J   25270.48050592  .00003649  00000+0  26371-3 0  9998,2 45665  53.0540  79.2911 0001324  82.6934 277.4205 15.06403728294127
STARLINK-1451,45668,53.0529,0.0001282,15.0639795,546.3300104095442,548.1056713907519,1 45668U 20035M   25269.88710164  .00002712  00000+0  20088-3 0  9990,2 45668  53.0529  82.2731 0001282  85.2692 274.8443 15.06397950294049
STARLINK-1452,45669,53.046,0.0005214,15.22196033,495.6322763581911,502.8039822870496,1 45669U 20035N   25269.75075783  .00041790  00000+0  18001-2 0  9998,2 45669  53.0460  68.3230 0005214 225.0529 135.0045 15.22196033294228
STARLINK-1453,45670,53.0554,0.0001123,15.06403916,546.4218406930468,547.977271283522,1 45670U 20035P   25270.56065506  .00005102  00000+0  36112-3 0  9994,2 45670  53.0554  48.9338 0001123 104.1903 255.9211 15.06403916294450
STARLINK-1454,45671,53.0541,0.0001458,15.0639164,546.2274606972314,548.246899808194,1 45671U 20035Q   25269.64380171  .00002699  00000+0  20006-3 0  9993,2 45671  53.0541  83.0494 0001458  90.7779 269.3377 15.06391640293992
STARLINK-1456,45673,53.0545,0.0001272,15.06403578,546.3196889636192,548.0814948470006,1 45673U 20035S   25269.85758839  .00006289  00000+0  44070-3 0  9994,2 45673  53.0545  82.0907 0001272 103.9854 256.1277 15.06403578294045
STARLINK-1457,45674,53.0544,0.0001121,15.06391627,546.4608856461364,548.0135545462817,1 45674U 20035T   25269.86494552  .00000849  00000+0  75906-4 0  9994,2 45674  53.0544  82.0548 0001121  92.7477 267.3640 15.06391627294011
STARLINK-1458,45675,53.0548,0.0001446,15.06390509,546.2392370313455,548.242056246755,1 45675U 20035U   25269.72119845 -.00001188  00000+0 -60859-4 0  9999,2 45675  53.0548  82.7018 0001446  97.6909 262.4244 15.06390509293988
STARLINK-1460,45676,53.0543,0.0001178,15.06392883,546.4175619744628,548.0491792337771,1 45676U 20035V   25269.75805689  .00000119  00000+0  26887-4 0  9995,2 45676  53.0543  82.5357 0001178  83.8860 276.2263 15.06392883293984
STARLINK-1392,45677,53.0555,0.000112,15.06414902,546.3902519078538,547.9415197542785,1 45677U 20035W   25270.49891157  .00002975  00000+0  21845-3 0  9994,2 45677  53.0555  79.2058 0001120 107.2077 252.9035 15.06414902294130
